[{"OBJECT_NAME":"GPS BIIF-11","OBJECT_ID":"2015-062A","EPOCH":"2026-03-06T13:41:27.741408","MEAN_MOTION":2.00567148,"ECCENTRICITY":0.01114468,"INCLINATION":56.8944,"RA_OF_ASC_NODE":34.7646,"ARG_OF_PERICENTER":231.5107,"MEAN_ANOMALY":127.4729,"EPHEMERIS_TYPE":0,"CLASSIFICATION_TYPE":"U","NORAD_CAT_ID":41019,"ELEMENT_SET_NO":999,"REV_AT_EPOCH":7577,"BSTAR":0,"MEAN_MOTION_DOT":-7.7e-7,"MEAN_MOTION_DDOT":0},{"OBJECT_NAME":"ELEKTRO-L 2","OBJECT_ID":"2015-074A","EPOCH":"2026-03-07T07:00:15.232608","MEAN_MOTION":1.00271084,"ECCENTRICITY":0.000324,"INCLINATION":6.4383,"RA_OF_ASC_NODE":71.7777,"ARG_OF_PERICENTER":243.1619,"MEAN_ANOMALY":300.6093,"EPHEMERIS_TYPE":0,"CLASSIFICATION_TYPE":"U","NORAD_CAT_ID":41105,"ELEMENT_SET_NO":999,"REV_AT_EPOCH":3748,"BSTAR":0,"MEAN_MOTION_DOT":-1.18e-6,"MEAN_MOTION_DDOT":0},{"OBJECT_NAME":"GSAT0209 (GALILEO 12)","OBJECT_ID":"2015-079A","EPOCH":"2026-03-05T19:12:03.208896","MEAN_MOTION":1.70474567,"ECCENTRICITY":0.00047381,"INCLINATION":55.7602,"RA_OF_ASC_NODE":104.0969,"ARG_OF_PERICENTER":323.5937,"MEAN_ANOMALY":36.4535,"EPHEMERIS_TYPE":0,"CLASSIFICATION_TYPE":"U","NORAD_CAT_ID":41174,"ELEMENT_SET_NO":999,"REV_AT_EPOCH":6301,"BSTAR":0,"MEAN_MOTION_DOT":8.0e-8,"MEAN_MOTION_DDOT":0},{"OBJECT_NAME":"GSAT0208 (GALILEO 11)","OBJECT_ID":"2015-079B","EPOCH":"2026-03-07T04:38:31.190784","MEAN_MOTION":1.70474405,"ECCENTRICITY":0.0004299,"INCLINATION":55.7596,"RA_OF_ASC_NODE":104.0556,"ARG_OF_PERICENTER":323.7479,"MEAN_ANOMALY":36.2961,"EPHEMERIS_TYPE":0,"CLASSIFICATION_TYPE":"U","NORAD_CAT_ID":41175,"ELEMENT_SET_NO":999,"REV_AT_EPOCH":6345,"BSTAR":0,"MEAN_MOTION_DOT":6.0e-8,"MEAN_MOTION_DDOT":0},{"OBJECT_NAME":"GPS BIIF-12","OBJECT_ID":"2016-007A","EPOCH":"2026-03-06T03:46:32.170656","MEAN_MOTION":2.00556703,"ECCENTRICITY":0.0095487,"INCLINATION":55.4568,"RA_OF_ASC_NODE":93.5431,"ARG_OF_PERICENTER":246.0433,"MEAN_ANOMALY":113.0135,"EPHEMERIS_TYPE":0,"CLASSIFICATION_TYPE":"U","NORAD_CAT_ID":41328,"ELEMENT_SET_NO":999,"REV_AT_EPOCH":7377,"BSTAR":0,"MEAN_MOTION_DOT":-4.0e-8,"MEAN_MOTION_DDOT":0},{"OBJECT_NAME":"GSAT0211 (GALILEO 14)","OBJECT_ID":"2016-030A","EPOCH":"2026-03-05T13:22:59.638944","MEAN_MOTION":1.70473873,"ECCENTRICITY":0.00035813,"INCLINATION":55.131,"RA_OF_ASC_NODE":224.5419,"ARG_OF_PERICENTER":25.3389,"MEAN_ANOMALY":334.6168,"EPHEMERIS_TYPE":0,"CLASSIFICATION_TYPE":"U","NORAD_CAT_ID":41549,"ELEMENT_SET_NO":999,"REV_AT_EPOCH":6090,"BSTAR":0,"MEAN_MOTION_DOT":1.6e-7,"MEAN_MOTION_DDOT":0},{"OBJECT_NAME":"GSAT0210 (GALILEO 13)","OBJECT_ID":"2016-030B","EPOCH":"2026-03-05T19:33:28.414080","MEAN_MOTION":1.70473987,"ECCENTRICITY":0.00012003,"INCLINATION":55.1283,"RA_OF_ASC_NODE":224.5329,"ARG_OF_PERICENTER":195.2538,"MEAN_ANOMALY":164.6814,"EPHEMERIS_TYPE":0,"CLASSIFICATION_TYPE":"U","NORAD_CAT_ID":41550,"ELEMENT_SET_NO":999,"REV_AT_EPOCH":6090,"BSTAR":0,"MEAN_MOTION_DOT":1.8e-7,"MEAN_MOTION_DDOT":0},{"OBJECT_NAME":"INSAT-3DR","OBJECT_ID":"2016-054A","EPOCH":"2026-03-07T15:22:01.270272","MEAN_MOTION":1.00272801,"ECCENTRICITY":0.00129772,"INCLINATION":0.0555,"RA_OF_ASC_NODE":94.5013,"ARG_OF_PERICENTER":187.7604,"MEAN_ANOMALY":187.5724,"EPHEMERIS_TYPE":0,"CLASSIFICATION_TYPE":"U","NORAD_CAT_ID":41752,"ELEMENT_SET_NO":999,"REV_AT_EPOCH":3480,"BSTAR":0,"MEAN_MOTION_DOT":-7.8e-7,"MEAN_MOTION_DDOT":0},{"OBJECT_NAME":"GSAT0207 (GALILEO 15)","OBJECT_ID":"2016-069A","EPOCH":"2026-03-06T16:19:01.953408","MEAN_MOTION":1.70474474,"ECCENTRICITY":0.0005221,"INCLINATION":55.431,"RA_OF_ASC_NODE":103.9217,"ARG_OF_PERICENTER":309.5726,"MEAN_ANOMALY":50.4564,"EPHEMERIS_TYPE":0,"CLASSIFICATION_TYPE":"U","NORAD_CAT_ID":41859,"ELEMENT_SET_NO":999,"REV_AT_EPOCH":5765,"BSTAR":0,"MEAN_MOTION_DOT":6.0e-8,"MEAN_MOTION_DDOT":0},{"OBJECT_NAME":"GSAT0212 (GALILEO 16)","OBJECT_ID":"2016-069B","EPOCH":"2026-03-06T12:48:08.720064","MEAN_MOTION":1.70474714,"ECCENTRICITY":0.00036507,"INCLINATION":55.4282,"RA_OF_ASC_NODE":103.921,"ARG_OF_PERICENTER":335.613,"MEAN_ANOMALY":24.4456,"EPHEMERIS_TYPE":0,"CLASSIFICATION_TYPE":"U","NORAD_CAT_ID":41860,"ELEMENT_SET_NO":999,"REV_AT_EPOCH":5790,"BSTAR":0,"MEAN_MOTION_DOT":6.0e-8,"MEAN_MOTION_DDOT":0},{"OBJECT_NAME":"GSAT0213 (GALILEO 17)","OBJECT_ID":"2016-069C","EPOCH":"2026-03-05T17:27:54.626112","MEAN_MOTION":1.70474927,"ECCENTRICITY":0.00052959,"INCLINATION":55.4302,"RA_OF_ASC_NODE":103.9512,"ARG_OF_PERICENTER":293.0089,"MEAN_ANOMALY":67.0145,"EPHEMERIS_TYPE":0,"CLASSIFICATION_TYPE":"U","NORAD_CAT_ID":41861,"ELEMENT_SET_NO":999,"REV_AT_EPOCH":5775,"BSTAR":0,"MEAN_MOTION_DOT":8.0e-8,"MEAN_MOTION_DDOT":0},{"OBJECT_NAME":"GSAT0214 (GALILEO 18)","OBJECT_ID":"2016-069D","EPOCH":"2026-03-06T11:02:54.170016","MEAN_MOTION":1.70474815,"ECCENTRICITY":0.0004341,"INCLINATION":55.4293,"RA_OF_ASC_NODE":103.9236,"ARG_OF_PERICENTER":297.3479,"MEAN_ANOMALY":62.684,"EPHEMERIS_TYPE":0,"CLASSIFICATION_TYPE":"U","NORAD_CAT_ID":41862,"ELEMENT_SET_NO":999,"REV_AT_EPOCH":5789,"BSTAR":0,"MEAN_MOTION_DOT":6.0e-8,"MEAN_MOTION_DDOT":0},{"OBJECT_NAME":"GOES 16","OBJECT_ID":"2016-071A","EPOCH":"2026-03-07T08:10:14.882592","MEAN_MOTION":1.00272251,"ECCENTRICITY":0.0002356,"INCLINATION":0.138,"RA_OF_ASC_NODE":89.0757,"ARG_OF_PERICENTER":223.6591,"MEAN_ANOMALY":230.1708,"EPHEMERIS_TYPE":0,"CLASSIFICATION_TYPE":"U","NORAD_CAT_ID":41866,"ELEMENT_SET_NO":999,"REV_AT_EPOCH":3408,"BSTAR":0,"MEAN_MOTION_DOT":-9.3e-7,"MEAN_MOTION_DDOT":0},{"OBJECT_NAME":"GSAT-17","OBJECT_ID":"2017-040B","EPOCH":"2026-03-07T14:07:46.889760","MEAN_MOTION":1.00271809,"ECCENTRICITY":0.00048585,"INCLINATION":0.0167,"RA_OF_ASC_NODE":249.4173,"ARG_OF_PERICENTER":41.434,"MEAN_ANOMALY":179.8745,"EPHEMERIS_TYPE":0,"CLASSIFICATION_TYPE":"U","NORAD_CAT_ID":42815,"ELEMENT_SET_NO":999,"REV_AT_EPOCH":3177,"BSTAR":0,"MEAN_MOTION_DOT":-2.59e-6,"MEAN_MOTION_DDOT":0},{"OBJECT_NAME":"GSAT0215 (GALILEO 19)","OBJECT_ID":"2017-079A","EPOCH":"2026-03-03T10:20:26.274624","MEAN_MOTION":1.70474475,"ECCENTRICITY":6.318e-5,"INCLINATION":55.108,"RA_OF_ASC_NODE":224.4135,"ARG_OF_PERICENTER":13.1955,"MEAN_ANOMALY":346.7446,"EPHEMERIS_TYPE":0,"CLASSIFICATION_TYPE":"U","NORAD_CAT_ID":43055,"ELEMENT_SET_NO":999,"REV_AT_EPOCH":5118,"BSTAR":0,"MEAN_MOTION_DOT":1.0e-7,"MEAN_MOTION_DDOT":0},{"OBJECT_NAME":"GSAT0216 (GALILEO 20)","OBJECT_ID":"2017-079B","EPOCH":"2026-03-06T15:43:11.296704","MEAN_MOTION":1.70474699,"ECCENTRICITY":0.00017073,"INCLINATION":55.1075,"RA_OF_ASC_NODE":224.325,"ARG_OF_PERICENTER":318.8981,"MEAN_ANOMALY":41.0306,"EPHEMERIS_TYPE":0,"CLASSIFICATION_TYPE":"U","NORAD_CAT_ID":43056,"ELEMENT_SET_NO":999,"REV_AT_EPOCH":5125,"BSTAR":0,"MEAN_MOTION_DOT":2.2e-7,"MEAN_MOTION_DDOT":0},{"OBJECT_NAME":"GSAT0217 (GALILEO 21)","OBJECT_ID":"2017-079C","EPOCH":"2026-03-06T06:56:23.730720","MEAN_MOTION":1.70474591,"ECCENTRICITY":0.00020747,"INCLINATION":55.1073,"RA_OF_ASC_NODE":224.3328,"ARG_OF_PERICENTER":355.7864,"MEAN_ANOMALY":4.152,"EPHEMERIS_TYPE":0,"CLASSIFICATION_TYPE":"U","NORAD_CAT_ID":43057,"ELEMENT_SET_NO":999,"REV_AT_EPOCH":5123,"BSTAR":0,"MEAN_MOTION_DOT":2.0e-7,"MEAN_MOTION_DDOT":0}]
